ONEWEB-0267             
1 48985U 21060U   24304.38857198 -.00000053  00000+0 -17206-3 0  9993
2 48985  87.9123 347.2647 0002187  94.2201 265.9180 13.16595418161322
ONEWEB-0268             
1 48986U 21060V   24305.11686724  .00000183  00000+0  44637-3 0  9991
2 48986  87.9122 347.1264 0001957  99.8364 260.2988 13.16593733162975
ONEWEB-0269             
1 48987U 21060W   24304.41389935  .00000103  00000+0  23480-3 0  9993
2 48987  87.9129 347.2956 0001765  98.3059 261.8272 13.16593446161360
ONEWEB-0270             
1 48988U 21060X   24304.35531825  .00000089  00000+0  19834-3 0  9995
2 48988  87.9122 347.2842 0002217  85.7059 274.4325 13.16594132161396
ONEWEB-0271             
1 48989U 21060Y   24304.57064618  .00000169  00000+0  40865-3 0  9998
2 48989  87.9123 347.2199 0002146  91.7865 268.3512 13.16594474162712
ONEWEB-0272             
1 48990U 21060Z   24305.12478728  .00000166  00000+0  40084-3 0  9993
2 48990  87.9124 347.1396 0002068  93.6426 266.4941 13.16594084162745
ONEWEB-0273             
1 48991U 21060AA  24304.38698240  .00000030  00000+0  45215-4 0  9996
2 48991  87.9123 347.2721 0001928  89.8581 270.2771 13.16593652161328
ONEWEB-0274             
1 48992U 21060AB  24304.41231902  .00000102  00000+0  23372-3 0  9998
2 48992  87.9130 347.2903 0002227 105.1142 255.0236 13.16593448161361
